{"type": "FeatureCollection", "features": [ {"type": "Feature", "properties": {"norad_id": 66911, "name": "1998-067XX", "group": "stations", "lat": -50.941734377246284, "lon": 13.786428875603313, "alt_km": 410.6679099371513, "timestamp": "2025-12-17T23:38:05.647167+00:00", "meta": {"OBJECT_NAME": "1998-067XX", "OBJECT_ID": "1998-067XX", "EPOCH": "2025-12-17T14:47:13.814304", "MEAN_MOTION": 15.52703134, "ECCENTRICITY": 0.00042191, "INCLINATION": 51.6305, "RA_OF_ASC_NODE": 118.1027, "ARG_OF_PERICENTER": 237.6725, "MEAN_ANOMALY": 122.3857, "EPHEMERIS_TYPE": 0, "CLASSIFICATION_TYPE": "U", "NORAD_CAT_ID": 66911, "ELEMENT_SET_NO": 999, "REV_AT_EPOCH": 236, "BSTAR": 0.00097424314, "MEAN_MOTION_DOT": 0.00061259, "MEAN_MOTION_DDOT": 0}, "tle": {"line1": "1 66911U 98067XX  25351.61613211  .00061259  00000+0  97424-3 0  9991", "line2": "2 66911  51.6305 118.1027 0004219 237.6725 122.3857 15.52703134  2363"}}, "geometry": {"type": "Point", "coordinates": [13.786428875603313, -50.941734377246284]}}, {"type": "Feature", "properties": {"norad_id": 66912, "name": "1998-067XY", "group": "stations", "lat": -31.411818585985618, "lon": -34.712149488432814, "alt_km": 413.2343263466437, "timestamp": "2025-12-17T23:38:05.647177+00:00", "meta": {"OBJECT_NAME": "1998-067XY", "OBJECT_ID": "1998-067XY", "EPOCH": "2025-12-17T14:57:17.441856", "MEAN_MOTION": 15.51610619, "ECCENTRICITY": 0.00041707, "INCLINATION": 51.6305, "RA_OF_ASC_NODE": 118.1486, "ARG_OF_PERICENTER": 250.1115, "MEAN_ANOMALY": 109.9425, "EPHEMERIS_TYPE": 0, "CLASSIFICATION_TYPE": "U", "NORAD_CAT_ID": 66912, "ELEMENT_SET_NO": 999, "REV_AT_EPOCH": 236, "BSTAR": 0.00073122967, "MEAN_MOTION_DOT": 0.00043985, "MEAN_MOTION_DDOT": 0}, "tle": {"line1": "1 66912U 98067XY  25351.62311854  .00043985  00000+0  73123-3 0  9997", "line2": "2 66912  51.6305 118.1486 0004170 250.1115 109.9425 15.51610619  2368"}}, "geometry": {"type": "Point", "coordinates": [-34.712149488432814, -31.411818585985618]}}]}